[{"OBJECT_NAME":"STARLINK-30479","OBJECT_ID":"2023-146H","EPOCH":"2026-03-09T22:00:01.999584","MEAN_MOTION":15.07912321,"ECCENTRICITY":0.00014858,"INCLINATION":42.9993,"RA_OF_ASC_NODE":312.0545,"ARG_OF_PERICENTER":264.1602,"MEAN_ANOMALY":3.5227,"EPHEMERIS_TYPE":0,"CLASSIFICATION_TYPE":"U","NORAD_CAT_ID":57898,"ELEMENT_SET_NO":999,"REV_AT_EPOCH":578,"BSTAR":0.10226617,"MEAN_MOTION_DOT":0.0175398,"MEAN_MOTION_DDOT":0},{"OBJECT_NAME":"FLOCK 4H-6","OBJECT_ID":"2025-276AV","EPOCH":"2026-03-09T17:20:31.081344","MEAN_MOTION":15.19043322,"ECCENTRICITY":0.00022287,"INCLINATION":97.4294,"RA_OF_ASC_NODE":144.0723,"ARG_OF_PERICENTER":346.2393,"MEAN_ANOMALY":13.878,"EPHEMERIS_TYPE":0,"CLASSIFICATION_TYPE":"U","NORAD_CAT_ID":66709,"ELEMENT_SET_NO":999,"REV_AT_EPOCH":1532,"BSTAR":0.00034579491,"MEAN_MOTION_DOT":7.179e-5,"MEAN_MOTION_DDOT":0}]
